STARLINK-4272           
1 52866U 22062AN  26068.26527154 -.00001209  00000+0 -57877-4 0  9994
2 52866  53.2188  26.0231 0001355 114.2772 245.8362 15.08831406205865
LEMUR-2-SIERRINI        
1 60579U 24149DR  26068.80891719  .00014386  00000+0  92040-3 0  9991
2 60579  97.6873 151.1225 0006580 147.8458 212.3173 15.08682764 85461
